[{"OBJECT_NAME":"NEXTSAT-2","OBJECT_ID":"2023-072A","EPOCH":"2026-03-09T23:10:55.073280","MEAN_MOTION":15.26393087,"ECCENTRICITY":0.00062633,"INCLINATION":97.5306,"RA_OF_ASC_NODE":265.1019,"ARG_OF_PERICENTER":22.4193,"MEAN_ANOMALY":337.7318,"EPHEMERIS_TYPE":0,"CLASSIFICATION_TYPE":"U","NORAD_CAT_ID":56743,"ELEMENT_SET_NO":999,"REV_AT_EPOCH":15445,"BSTAR":0.00056400163,"MEAN_MOTION_DOT":0.00014622,"MEAN_MOTION_DDOT":0},{"OBJECT_NAME":"STARLINK-32708","OBJECT_ID":"2025-003J","EPOCH":"2026-03-08T23:53:21.486048","MEAN_MOTION":15.27608468,"ECCENTRICITY":0.00036607,"INCLINATION":43.0005,"RA_OF_ASC_NODE":293.041,"ARG_OF_PERICENTER":246.3573,"MEAN_ANOMALY":113.6894,"EPHEMERIS_TYPE":0,"CLASSIFICATION_TYPE":"U","NORAD_CAT_ID":62495,"ELEMENT_SET_NO":999,"REV_AT_EPOCH":6644,"BSTAR":0.0016206507,"MEAN_MOTION_DOT":0.0004465,"MEAN_MOTION_DDOT":0}]
